{
  "links" : {
    "next" : "https://api.nasa.gov/neo/rest/v1/feed?start_date=1995-09-16&end_date=1995-09-16&detailed=true&api_key=t0TVs3DtDT2H8Oy2Zy8m2eVrNsAVKAexjcZXUckd",
    "prev" : "https://api.nasa.gov/neo/rest/v1/feed?start_date=1995-09-14&end_date=1995-09-14&detailed=true&api_key=t0TVs3DtDT2H8Oy2Zy8m2eVrNsAVKAexjcZXUckd",
    "self" : "https://api.nasa.gov/neo/rest/v1/feed?start_date=1995-09-15&end_date=1995-09-15&detailed=true&api_key=t0TVs3DtDT2H8Oy2Zy8m2eVrNsAVKAexjcZXUckd"
  },
  "element_count" : 3,
  "near_earth_objects" : {
    "1995-09-15" : [ {
      "links" : {
        "self" : "https://api.nasa.gov/neo/rest/v1/neo/2347634?api_key=t0TVs3DtDT2H8Oy2Zy8m2eVrNsAVKAexjcZXUckd"
      },
      "neo_reference_id" : "2347634",
      "name" : "347634 (2001 SW269)",
      "nasa_jpl_url" : "http://ssd.jpl.nasa.gov/sbdb.cgi?sstr=2347634",
      "absolute_magnitude_h" : 19.5,
      "estimated_diameter" : {
        "kilometers" : {
          "estimated_diameter_min" : 0.3346223745,
          "estimated_diameter_max" : 0.7482383761
        },
        "meters" : {
          "estimated_diameter_min" : 334.6223744549,
          "estimated_diameter_max" : 748.2383760735
        },
        "miles" : {
          "estimated_diameter_min" : 0.2079246394,
          "estimated_diameter_max" : 0.464933628
        },
        "feet" : {
          "estimated_diameter_min" : 1097.8424710066,
          "estimated_diameter_max" : 2454.8503937571
        }
      },
      "is_potentially_hazardous_asteroid" : false,
      "close_approach_data" : [ {
        "close_approach_date" : "1995-09-15",
        "epoch_date_close_approach" : 811148400000,
        "relative_velocity" : {
          "kilometers_per_second" : "15.5196895769",
          "kilometers_per_hour" : "55870.8824768148",
          "miles_per_hour" : "34715.993614552"
        },
        "miss_distance" : {
          "astronomical" : "0.427378053",
          "lunar" : "166.2500610352",
          "kilometers" : "63934848",
          "miles" : "39727272"
        },
        "orbiting_body" : "Earth"
      } ],
      "orbital_data" : {
        "orbit_id" : "33",
        "orbit_determination_date" : "2017-04-06 09:23:12",
        "orbit_uncertainty" : "0",
        "minimum_orbit_intersection" : ".229332",
        "jupiter_tisserand_invariant" : "5.340",
        "epoch_osculation" : "2458000.5",
        "eccentricity" : ".5542303362728849",
        "semi_major_axis" : "1.122247254074884",
        "inclination" : "24.46689441089036",
        "ascending_node_longitude" : "191.2527124013881",
        "orbital_period" : "434.241427872221",
        "perihelion_distance" : ".5002637810676391",
        "perihelion_argument" : "29.44391572625644",
        "aphelion_distance" : "1.744230727082128",
        "perihelion_time" : "2458125.674209881722",
        "mean_anomaly" : "256.2265857999162",
        "mean_motion" : ".829031909193917",
        "equinox" : "J2000"
      }
    }, {
      "links" : {
        "self" : "https://api.nasa.gov/neo/rest/v1/neo/3666733?api_key=t0TVs3DtDT2H8Oy2Zy8m2eVrNsAVKAexjcZXUckd"
      },
      "neo_reference_id" : "3666733",
      "name" : "(2014 FA44)",
      "nasa_jpl_url" : "http://ssd.jpl.nasa.gov/sbdb.cgi?sstr=3666733",
      "absolute_magnitude_h" : 24.8,
      "estimated_diameter" : {
        "kilometers" : {
          "estimated_diameter_min" : 0.0291443905,
          "estimated_diameter_max" : 0.0651688382
        },
        "meters" : {
          "estimated_diameter_min" : 29.1443904535,
          "estimated_diameter_max" : 65.1688382168
        },
        "miles" : {
          "estimated_diameter_min" : 0.018109479,
          "estimated_diameter_max" : 0.0404940262
        },
        "feet" : {
          "estimated_diameter_min" : 95.6180819754,
          "estimated_diameter_max" : 213.8085311752
        }
      },
      "is_potentially_hazardous_asteroid" : false,
      "close_approach_data" : [ {
        "close_approach_date" : "1995-09-15",
        "epoch_date_close_approach" : 811148400000,
        "relative_velocity" : {
          "kilometers_per_second" : "5.7721969184",
          "kilometers_per_hour" : "20779.9089062441",
          "miles_per_hour" : "12911.8272867715"
        },
        "miss_distance" : {
          "astronomical" : "0.4039159222",
          "lunar" : "157.1232910156",
          "kilometers" : "60424960",
          "miles" : "37546328"
        },
        "orbiting_body" : "Earth"
      } ],
      "orbital_data" : {
        "orbit_id" : "29",
        "orbit_determination_date" : "2017-04-06 08:41:50",
        "orbit_uncertainty" : "5",
        "minimum_orbit_intersection" : ".0378689",
        "jupiter_tisserand_invariant" : "5.004",
        "epoch_osculation" : "2458000.5",
        "eccentricity" : ".1889226522509931",
        "semi_major_axis" : "1.292702072996871",
        "inclination" : ".9766283120282108",
        "ascending_node_longitude" : "45.26691335656935",
        "orbital_period" : "536.8415167885923",
        "perihelion_distance" : "1.048481368795945",
        "perihelion_argument" : "190.6591072492211",
        "aphelion_distance" : "1.536922777197796",
        "perihelion_time" : "2457869.144418924851",
        "mean_anomaly" : "88.08560386672828",
        "mean_motion" : ".6705889703790694",
        "equinox" : "J2000"
      }
    }, {
      "links" : {
        "self" : "https://api.nasa.gov/neo/rest/v1/neo/3771633?api_key=t0TVs3DtDT2H8Oy2Zy8m2eVrNsAVKAexjcZXUckd"
      },
      "neo_reference_id" : "3771633",
      "name" : "(2017 FZ2)",
      "nasa_jpl_url" : "http://ssd.jpl.nasa.gov/sbdb.cgi?sstr=3771633",
      "absolute_magnitude_h" : 26.692,
      "estimated_diameter" : {
        "kilometers" : {
          "estimated_diameter_min" : 0.0121942467,
          "estimated_diameter_max" : 0.0272671645
        },
        "meters" : {
          "estimated_diameter_min" : 12.1942466911,
          "estimated_diameter_max" : 27.2671645358
        },
        "miles" : {
          "estimated_diameter_min" : 0.0075771513,
          "estimated_diameter_max" : 0.0169430253
        },
        "feet" : {
          "estimated_diameter_min" : 40.0073723142,
          "estimated_diameter_max" : 89.4592040956
        }
      },
      "is_potentially_hazardous_asteroid" : false,
      "close_approach_data" : [ {
        "close_approach_date" : "1995-09-15",
        "epoch_date_close_approach" : 811148400000,
        "relative_velocity" : {
          "kilometers_per_second" : "5.985693748",
          "kilometers_per_hour" : "21548.4974929048",
          "miles_per_hour" : "13389.3983449663"
        },
        "miss_distance" : {
          "astronomical" : "0.2007966444",
          "lunar" : "78.1098937988",
          "kilometers" : "30038752",
          "miles" : "18665214"
        },
        "orbiting_body" : "Earth"
      } ],
      "orbital_data" : {
        "orbit_id" : "7",
        "orbit_determination_date" : "2017-06-20 13:03:38",
        "orbit_uncertainty" : "3",
        "minimum_orbit_intersection" : ".00138825",
        "jupiter_tisserand_invariant" : "6.015",
        "epoch_osculation" : "2458000.5",
        "eccentricity" : ".2640538859757104",
        "semi_major_axis" : "1.007138471483015",
        "inclination" : "1.811674081309308",
        "ascending_node_longitude" : "185.8691790850466",
        "orbital_period" : "369.1749337279458",
        "perihelion_distance" : ".7411996443722877",
        "perihelion_argument" : "100.3230370449916",
        "aphelion_distance" : "1.273077298593743",
        "perihelion_time" : "2457910.968954695910",
        "mean_anomaly" : "87.30597168123131",
        "mean_motion" : ".9751474629241565",
        "equinox" : "J2000"
      }
    } ]
  }
}